NAYIF-1 (EO-88)         
1 42017U 17008BX  23048.11961418  .00074443  00000+0  13639-2 0  9993
2 42017  97.2353 117.0247 0003293  88.5495 271.6134 15.49051005334726
ZHUHAI-1 02 (CAS-4B)    
1 42759U 17034B   23048.45244267  .00014645  00000+0  78653-3 0  9994
2 42759  43.0166  60.0626 0009910  37.5851 113.0232 15.14709554313467
ZHUHAI-1 01 (CAS-4A)    
1 42761U 17034D   23048.46805497  .00014326  00000+0  76711-3 0  9995
2 42761  43.0170  58.5674 0010538  40.5787  83.6469 15.14825587313470
MAX VALIER SAT          
1 42778U 17036P   23048.09970621  .00022689  00000+0  71211-3 0  9997
2 42778  97.1761  86.1458 0009973 164.4338 195.7213 15.32985188314297
RADFXSAT (FOX-1B)       
1 43017U 17073E   23048.46178910  .00009028  00000+0  64702-3 0  9996
2 43017  97.6492 297.5725 0241873 103.8819 258.9428 14.83930705283412
FOX-1D (AO-92)          
1 43137U 18004AC  23048.45089931  .00036694  00000+0  10094-2 0  9990
2 43137  97.3425 127.0652 0006479 205.7638 154.3284 15.37074833283865
DIWATA-2B               
1 43678U 18084H   23048.57133121  .00003955  00000+0  38741-3 0  9996
2 43678  98.0003 190.3207 0009285 190.2428 169.8549 14.92838469234412
ES'HAIL 2               
1 43700U 18090A   23048.37271646  .00000139  00000+0  00000+0 0  9996
2 43700   0.0129 111.8605 0002469 257.5170 297.6416  1.00271490 15485
FOX-1CLIFF (AO-95)      
1 43770U 18099N   23048.14707944  .00010059  00000+0  84965-3 0  9990
2 43770  97.5912 112.9501 0013506 168.7711 191.3816 14.98219090229624
ITASAT 1                
1 43786U 18099AE  23048.39856334  .00008335  00000+0  70645-3 0  9996
2 43786  97.5942 114.2194 0015042 159.3318 200.8516 14.98124982229700
JY1SAT (JO-97)          
1 43803U 18099AX  23048.17653321  .00009906  00000+0  81926-3 0  9992
2 43803  97.5878 113.8807 0014944 163.1767 196.9955 14.99025150229705
UWE-4                   
1 43880U 18111E   23048.52371227  .00009277  00000+0  74326-3 0  9990
2 43880  97.6523 315.6169 0013440 213.5099 146.5276 15.00286589226419
NEXUS (FO-99)           
1 43937U 19003F   23048.53088756  .00043069  00000+0  10630-2 0  9991
2 43937  97.1051  78.1950 0015930   0.6673 359.4592 15.40264702227550
JAISAT-1                
1 44419U 19038F   23048.38630968  .00028969  00000+0  12064-2 0  9991
2 44419  97.6646  26.7662 0016939  13.9819 346.1883 15.23561847200254
DUCHIFAT-3              
1 44854U 19089C   23048.49198368  .00014061  00000+0  10080-2 0  9999
2 44854  36.9628  85.4032 0006753  55.2845  87.6717 15.03754298174791
CAS-6 (TIANQIN 1)       
1 44881U 19093C   23048.55048783  .00002339  00000+0  29964-3 0  9993
2 44881  97.8714 129.0246 0016029 106.1895 254.1095 14.82159065171078
RS-44 & BREEZE-KM R/B   
1 44909U 19096E   23048.44866172  .00000041  00000+0  11198-3 0  9993
2 44909  82.5173  67.5063 0218560 106.8498 255.6697 12.79718392146841
ORBITAL FACTORY 2 (OF-2)
1 45113U 19071C   23048.33891746  .00274632  00000+0  15326-2 0  9992
2 45113  51.6280 276.7026 0002513 252.9752 107.0973 15.78052827171484
HUSKYSAT-1 (HO-107)     
1 45119U 19071J   23048.36459568  .00167778  00000+0  13689-2 0  9995
2 45119  51.6310 281.3613 0002032 298.8648  61.2145 15.69546614171414
BY70-2                  
1 45857U 20042B   23048.57374284  .00030392  00000+0  35617-2 0  9994
2 45857  97.9343 128.5037 0008723  44.0747 316.1172 14.84900387141751
SALSAT                  
1 46495U 20068K   23048.40918406  .00007907  00000+0  54228-3 0  9999
2 46495  97.7557 355.3719 0016530 161.1654 199.0187 15.06188235131034
BY70-3                  
1 46839U 20079N   23048.49134745  .00203352  00000+0  19167-2 0  9992
2 46839  97.1673 124.7232 0005399 186.2894 301.7373 15.66413796128193
RADFXSAT-2 (AO-109)     
1 47311U 21002C   23048.57172159  .00031377  00000+0  99727-3 0  9992
2 47311  60.6830 156.0519 0034464 112.5981 247.8762 15.31904217115923
UVSQ-SAT                
1 47438U 21006AB  23048.40512973  .00018517  00000+0  85890-3 0  9997
2 47438  97.4042 107.4824 0011695 138.7215 221.4907 15.20039110114428
DIY-1 (ARDUIQUBE)       
1 47963U 21022AH  23046.25001587  .00098513  00000+0  35600-2 0  9990
2 47963  97.5131 311.2851 0014226  29.2993 330.9041 15.27963909103798
XW-3 (CAS-9)            
1 50466U 21131B   23048.55842456  .00001135  00000+0  38434-3 0  9999
2 50466  98.5598 130.4685 0005530 133.4964 226.6684 14.38686643 60152
TEVEL-3                 
1 50988U 22002E   23048.38136782  .00027733  00000+0  13011-2 0  9990
2 50988  97.4507 116.5330 0007637 294.3271 130.3619 15.19598025 60536
TEVEL-8                 
1 50989U 22002F   23048.32934468  .00027690  00000+0  13014-2 0  9997
2 50989  97.4529 116.5261 0007823 292.7816 131.4966 15.19536407 60520
TEVEL-5                 
1 50998U 22002Q   23048.38273326  .00028567  00000+0  13156-2 0  9993
2 50998  97.4502 116.7945 0009103 288.4092 134.6367 15.20220554 60551
TEVEL-6                 
1 50999U 22002R   23048.38155184  .00028572  00000+0  13156-2 0  9991
2 50999  97.4497 116.7911 0009099 287.7965 135.5285 15.20226500 60559
TEVEL-1                 
1 51013U 22002AF  23048.38753882  .00027629  00000+0  12974-2 0  9997
2 51013  97.4503 116.4962 0007870 293.7235 128.0332 15.19566187 60534
TEVEL-7                 
1 51062U 22002CG  23048.33127722  .00027665  00000+0  13000-2 0  9995
2 51062  97.4525 116.5059 0007655 291.3117 132.9131 15.19542169 60528
TEVEL-4                 
1 51063U 22002CH  23048.33411003  .00027663  00000+0  13009-2 0  9991
2 51063  97.4517 116.4984 0007865 292.0044 132.2209 15.19513867 60528
TEVEL-2                 
1 51069U 22002CP  23048.38312825  .00027819  00000+0  13050-2 0  9993
2 51069  97.4505 116.5110 0007827 294.9967 129.0229 15.19598012 60538
GREENCUBE               
1 53106U 22080B   23034.19933790 -.00000003  00000+0  00000+0 0  9992
2 53106  70.1777   6.2677 0008922 216.5435 143.4616  6.42557193 13147
RS29S (SXC3-2110 CYCLO*)
1 53373U 22096D   23048.53952866  .00037644  00000+0  12637-2 0  9995
2 53373  97.4256 314.0989 0002021 101.2951   1.3452 15.30764290 29333
RS32S (SXC3-212 MONITO*)
1 53374U 22096E   23048.53566839  .00036655  00000+0  12373-2 0  9995
2 53374  97.4240 314.0930 0002157 109.7357 356.7937 15.30592879 29333
RS34S (SXC3-218 KUZBAS*)
1 53375U 22096F   23048.37730006  .00028864  00000+0  10019-2 0  9995
2 53375  97.4251 313.8515 0002063 111.6791 340.9293 15.29735035 29300
RS23S (SXC3-21 UTMN)    
1 53376U 22096G   23048.51279300  .00033196  00000+0  11425-2 0  9993
2 53376  97.4260 314.0098 0002489 111.4841  61.3209 15.29983812 29327
RS28S (SXC3-214 MIET-A*)
1 53377U 22096H   23048.51880516  .00031577  00000+0  10945-2 0  9998
2 53377  97.4249 314.0066 0002184 114.6110  58.1403 15.29763701 29329
RS26S (KAI-1)           
1 53378U 22096J   23048.33898803  .00026020  00000+0  91999-3 0  9993
2 53378  97.4255 313.7732 0002191 113.8815  27.0552 15.29155425 29298
RS19S (SXC3-219 ISOI)   
1 53381U 22096M   23048.37794757  .00031413  00000+0  10707-2 0  9993
2 53381  97.4248 314.0050 0005904 112.8880 344.9212 15.30296885 29312
RS21S (CUBESX-HSE-2)    
1 53383U 22096P   23048.51516926  .00032327  00000+0  10971-2 0  9999
2 53383  97.4258 314.1630 0006239 112.5043  61.0333 15.30429868 29332
RS30S (SXC3-217 SIREN)  
1 53384U 22096Q   23048.51568598  .00028140  00000+0  97074-3 0  9990
2 53384  97.4252 314.1208 0006097 111.6137 327.0043 15.29927890 29333
RS20S (GEOSCAN-EDELVEIS)
1 53385U 22096R   23048.48426279  .00041186  00000+0  13318-2 0  9999
2 53385  97.4249 314.3169 0006746 110.4972 352.3038 15.31933362 29376
RS33S (SXC3-215 VIZARD) 
1 53386U 22096S   23048.52881663  .00047428  00000+0  14682-2 0  9997
2 53386  97.4258 314.5620 0007805 113.5512 351.2203 15.33288224 29387
CAS-5A (FO-118)         
1 54684U 22167C   23048.33789986  .00019267  00000+0  11722-2 0  9994
2 54684  97.5417 187.1740 0014791  28.5644  55.5325 15.10381706 10560
XW-4 (CAS-10)           
1 54816U 21035C   23048.61904013  .00414527  00000+0  19325-2 0  9990
2 54816  41.4774 160.4680 0015389   3.3206 356.7724 15.81224066  9545
